GLOBALSTAR M057 [-]     
1 25943U 99058A   23273.50590162 -.00000040  00000+0  48488-3 0  9998
2 25943  51.9997 323.7953 0002939 159.7930 200.3037 12.24772644 90333
GLOBALSTAR M059 [-]     
1 25944U 99058B   23272.86886743 -.00000041  00000+0  55515-3 0  9990
2 25944  51.9999 101.5233 0000978  99.6355   7.7517 11.99953566 87606
GLOBALSTAR M056 [-]     
1 25945U 99058C   23272.79273284 -.00000048  00000+0  45563-3 0  9992
2 25945  51.9943 119.7848 0001556  49.0665  33.6194 12.04769520 87178
GLOBALSTAR M031 [-]     
1 25946U 99058D   23273.08962729 -.00000168  00000+0 -78393-3 0  9996
2 25946  51.9975  48.7474 0001456  16.2674 156.3137 12.15996128 88613
GLOBALSTAR M039 [-]     
1 25961U 99062A   23272.59826755 -.00000078  00000+0  14567-3 0  9993
2 25961  51.9872  17.0874 0003137  51.1461 308.9685 12.62270846101117
GLOBALSTAR M034 [-]     
1 25962U 99062B   23272.25593862 -.00000071  00000+0  14997-3 0  9997
2 25962  51.9859 201.0009 0013925 299.9325 227.8928 11.79415386 64412
GLOBALSTAR M029 [-]     
1 25963U 99062C   23273.50091032 -.00000064  00000+0  27875-3 0  9990
2 25963  51.9834 348.3861 0002211 337.3276 129.0280 11.99867837 94067
GLOBALSTAR M061 [-]     
1 25964U 99062D   23272.60662519 -.00000047  00000+0  54908-3 0  9993
2 25964  51.9825  15.8222 0005715 222.4887 239.0143 11.76750443 47415
